#dP2022  6  9  0  0  0.00000000      96 __u+U ITR14 FIT  IAC
## 2213 345600.00000000   900.00000000 59739 0.0000000000000
+  125   C01C02C03C04C05C06C07C08C09C10C11C12C13C14C16C19C20
+        C21C22C23C24C25C26C27C28C29C30C32C33C34C35C36C37C38
+        C39C40C41C42C43C44C45C46C60E01E02E03E04E05E07E08E09
+        E10E11E12E13E14E15E18E19E21E24E25E26E27E30E31E33E34
+        E36G01G02G03G04G05G06G07G08G09G10G11G12G13G14G15G16
+        G17G18G19G20G21G22G23G24G25G26G27G28G29G30G31G32J02
+        J03R01R02R03R04R05R06R07R08R09R10R11R12R13R14R15R17
+        R18R19R20R21R23R24  0  0  0  0  0  0  0  0  0  0  0
++         0 16 17 17 17  9  9 10  9  9  9  9  9  9  9  7  7
++         7  7  7  7  7  7  7  7  7  7  7  7  7  7  7  7  8
++         8  8  7  8  7  8  7  7 17  4  4  5  4  4  4  4  4
++         4  4  4  4  4  5  4  4  4  4  4  4  4  4  4  4  5
++         5  4  4  4  4  4  4  4  4  4  4  4  4  4  3  7  4
++         4  3  4  4  4  4  3  4  4  4  3  4  4  4  4  4  8
++         8  7  6  6  6  6 15  6  6  6 15  6  6  7  6  6  6
++         6  7  7  6  0  6  0  0  0  0  0  0  0  0  0  0  0
%c M  cc GPS ccc cccc cccc cccc cccc ccccc ccccc ccccc ccccc
%c cc cc ccc ccc cccc cccc cccc cccc ccccc ccccc ccccc ccccc
%f  0.0000000  0.000000000  0.00000000000  0.000000000000000
%f  0.0000000  0.000000000  0.00000000000  0.000000000000000
%i    0    0    0    0      0      0      0      0         0
%i    0    0    0    0      0      0      0      0         0
/* INFORMATION & ANALYSIS CENTER (IAC)            RAPID DATA
/* S/V CLOCKS ARE ALIGNED TO GNSS TIME                      
/* G:C1WC2W R:C1PC2P E:C1XC5X C:C2IC6I J:C1CC2S             
/* PCV:IGS14_2196 OL/AL:FES2004  NONE     YN ORB:CoN CLK:CoN
*  2022 06 09 20 45  0.00000000
PC01      0.000000      0.000000      0.000000 999999.999999
PC02   4525.052150  41917.978802   -708.253637    -63.676416
PC03 -14719.945523  39504.060469  -1360.233666   -531.775981
PC04 -39638.658946  14404.743911   -372.486022     10.426397
PC05  22021.958998  36011.013054   -408.737174    254.010759
PC06 -16879.155247  30898.275728  23085.369283    156.427843
PC07  -4972.239686  39594.574078  13890.924889   -277.774597
PC08  -3262.815993  21277.392357 -36248.393208    354.752874
PC09 -10419.392909  29630.811920  28260.592806   -867.920396
PC10   1177.856068  41813.207102   7394.799073    127.354433
PC11  18911.588806 -19252.292672   7095.998754    404.559133
PC12  24176.433454  -9181.612358 -10439.443167   -601.532359
PC13   3251.494351  24481.285474 -33990.785091     -8.516433
PC14   8122.216144 -21561.712742  15722.320505    497.999780
PC16 -20319.634197  30710.685073  20494.593370    138.394366
PC19  -1736.768195  26808.101255  -7575.239808    860.160975
PC20 -12180.852990  14677.593357 -20365.866785   -951.890718
PC21  15984.809591   7207.611991  21734.846045   -453.682389
PC22  10097.611759  23987.246217  10119.205762   -965.222928
PC23 -16941.085366 -17652.748662 -13411.767813   -933.153112
PC24  20833.523878  -5102.579752 -17845.075109   -971.424730
PC25   1306.514696 -16692.243447 -22332.061326   -724.253618
PC26  26589.801417   7326.376685  -4139.389195    725.765526
PC27 -21946.156603   1450.676567  17142.369261    736.460061
PC28  -8510.469911 -13448.350784  22919.958449     76.673364
PC29  -9844.628526  21312.505931 -15097.768348    566.189918
PC30 -22615.063763  16189.244772   2128.078918    499.672128
PC32 -16029.488371  -7104.666327 -21687.795620   -967.263982
PC33   1687.676871 -26759.412287   7700.768470   -968.726106
PC34  22319.035408 -16733.837634  -1149.935983   -384.470371
PC35   8025.872646  13944.188181 -22813.025191    313.250259
PC36  -2314.717300  16471.185982  22434.538850   -967.188566
PC37 -26339.000991  -8749.214582   3021.932549   -908.863392
PC38 -12252.234684  19904.102693 -35081.035586      2.005791
PC39 -23798.356868  31394.926133  14840.400520     34.982395
PC40  -9771.300852  36874.965095  18146.637484    276.093483
PC41  -9904.653084 -24229.581676  -9610.202873   -969.494799
PC42  12714.144391 -13554.605774  20855.505737   -962.352246
PC43  10556.790803 -21390.743976  14486.559758   -919.126451
PC44  21889.931342  -1968.497536 -17231.400003    687.129611
PC45  17211.159886  17517.194466  13243.324246    779.246066
PC46 -19712.242224   6142.930489  18795.106235   -370.348945
PC60   7271.189094  41532.099042  -1357.185345     -0.815399
PE01  18260.678907  23286.511101   -622.645263   -493.039148
PE02 -18354.846451 -23217.943695    792.956403    304.635423
PE03  -9145.304806 -17954.302270 -21674.229746   -567.131904
PE04  18493.619013  -2242.364317  23013.812412  -1046.504917
PE05   5788.292102 -28024.517516  -7551.382816   -173.667530
PE07 -17106.305077  21655.075826 -10712.394582   -676.853993
PE08 -18412.468355   2644.124312 -23021.469936   -543.804780
PE09  16961.838062 -21750.871403  10726.128872   -547.836163
PE10  28527.958235  -6726.241659   4116.393046   -518.629728
PE11  23206.307565 -12196.831430  13744.181394   3402.879296
PE12  29080.581686   -332.922742  -5578.632361     -2.515760
PE13 -23660.349372  11911.697712 -13204.288516    429.195540
PE14  -5310.036407  28740.189334 -13071.525160  -1812.600617
PE15 -29034.320957    329.791355   5729.760263    740.405972
PE18   8347.952232 -21820.970618   5973.812170  -1348.651289
PE19   7280.828855  19969.531658  20612.929279  -5420.554219
PE21   5046.358178  24423.987823  15943.600411   -739.212704
PE24  12899.032054 -10630.145961 -24440.797720   -661.820233
PE25  -4812.627898 -24338.410316 -16140.171498   -577.001978
PE26  -3371.347963  16533.547557 -24323.371094  -1243.813585
PE27 -11977.065541  11684.690598  24420.408452   -318.387163
PE30 -21955.853207  -8806.014385  17791.743268   -579.481724
PE31  21788.741331   7812.268443 -18441.025776   -498.010586
PE33  17265.601706  11384.896766 -21184.235049   -455.798588
PE34 -17469.990354 -11256.157959  21066.925536   -521.344924
PE36   4459.419807 -16406.650782  24227.209771   -385.807267
PG01  11532.421208  13308.450610 -20296.216768    344.704731
PG02  12140.532518 -14591.777868  19292.514064   -652.818902
PG03  12563.305928  23397.920098  -1986.341888   -273.340524
PG04   3421.511760  19041.504811  18168.592782   -158.762380
PG05  -2021.421399 -21766.042469  14815.079820    -84.943140
PG06  24333.673267  -6193.446991   8843.949300    337.080492
PG07  24337.722115   6485.511749   9589.372363    321.942177
PG08  -2739.991290  23343.070160 -12062.575311    -71.472299
PG09  12012.133775   9860.324710  21469.575546   -329.783955
PG10 -17320.783632  -2427.426797 -19929.824428   -448.484710
PG11  13720.539792 -12659.097588  18879.684942    -16.311074
PG12  -8294.858839 -24717.622504  -5640.282607   -228.624152
PG13  12417.751149 -22805.355508  -5268.589272    326.999717
PG14  17847.575764   3881.516693 -19315.547681   -111.160389
PG15   -950.024638 -23385.624518 -12666.764650    -54.515331
PG16  -4501.195851  18694.300891  17843.314388   -507.742856
PG17  18456.500161  -7575.259315 -17126.852114    623.057060
PG18 -23981.360673  -6505.040382   9533.150992    146.734466
PG19  19374.716091 -13882.697568 -11743.489597    168.560266
PG20   6857.850350 -15171.878781  20739.106800    512.743109
PG21   1219.893334  14875.291659 -21328.152301    161.305502
PG22 -18370.375553  16779.762315  -8621.661107    273.114529
PG23 -19143.536437 -12649.784535 -13480.029486    -27.094397
PG24  -7667.226150 -14847.449469 -21013.329395    224.259132
PG25 -17389.133188 -18915.059103   6976.173407    335.372083
PG26 -11994.323111  10161.549615  21308.778671    211.303853
PG27 -12339.963486  23272.225816   -562.212788    213.920521
PG28  13771.938685  -5507.040201 -21517.464533    341.305473
PG29 -10894.414646 -10178.329626  21923.017136   -522.411296
PG30  26698.342065   -245.672696   -208.066237   -530.868556
PG31 -23355.936211   7453.530747  10652.827313   -181.143082
PG32 -18330.760348  10342.077841 -15937.242358   -147.265126
PJ02 -25468.949239  22339.358466  30139.947520     -0.565074
PJ03 -34468.734349  22669.953834  -3829.812296     -2.737561
PR01 -10842.892041   6708.061747 -22090.353886      9.714319
PR02  -5854.670289  22988.604693  -9250.412600    520.836478
PR03   2511.806611  24014.969986   8191.941305     58.141818
PR04   9026.070068  11694.788404  20824.618015    145.663542
PR05  10774.970422  -7049.672220  22038.361136     94.344468
PR06   4736.612504 -23660.226559   8295.433076    -52.997254
PR07  -2757.461630 -23811.617200  -8743.826240     36.208285
PR08  -9164.054800 -11588.305326 -20739.954547    -65.606262
PR09   4094.355786 -10705.155708 -22764.991683     59.627282
PR10 -11420.085801 -16306.262776 -15996.766282    -83.157004
PR11 -21740.157305 -13301.896320    831.633105     36.690093
PR12 -18418.368712  -1918.583091  17577.577512     18.797320
PR13  -5204.046027   9735.627354  22983.142437    -23.417818
PR14  12514.452993  16577.547025  14834.914945     25.313893
PR15  21766.267740  13197.671264  -1676.074284     95.515854
PR17    326.151075  11411.201761 -22814.590619    533.504111
PR18  16008.060375   2069.222763 -19763.317057    119.736750
PR19  23369.435449  -6977.378609  -7476.396410   -192.120974
PR20  17204.828092 -13956.547551  12682.032451    -72.310763
PR21  -1841.916874 -10669.398870  23086.299160   -308.121519
PR23 -23268.511733  10291.909415   1783.283178 999999.999999
PR24 -16210.756577  14672.455830 -13140.480062     97.893084
EOF
